{
  "type": "FeatureCollection",
  "features": [
    {
      "type": "Feature",
      "properties": {
        "norad_id": 66477,
        "name": "STARLINK-35354",
        "group": "last-30-days",
        "lat": 24.524848951441744,
        "lon": -107.52005331109459,
        "alt_km": 412.036109304825,
        "timestamp": "2025-12-07T11:27:48.739928+00:00",
        "meta_object_name": "STARLINK-35354",
        "meta_object_id": "2025-262X",
        "meta_epoch": "2025-12-07T00:00:02.000160",
        "meta_mean_motion": 15.50644962,
        "meta_eccentricity": 0.00014972,
        "meta_inclination": 43.0008,
        "meta_ra_of_asc_node": 104.5889,
        "meta_arg_of_pericenter": 269.6166,
        "meta_mean_anomaly": 83.4991,
        "meta_ephemeris_type": 0,
        "meta_classification_type": "U",
        "meta_norad_cat_id": 66477,
        "meta_element_set_no": 999,
        "meta_rev_at_epoch": 471,
        "meta_bstar": -0.0025459104,
        "meta_mean_motion_dot": -0.0014727,
        "meta_mean_motion_ddot": 0,
        "tle_line1": "1 66477U 25262X   25341.00002315 -.00147270  00000+0 -25459-2 0  9992",
        "tle_line2": "2 66477  43.0008 104.5889 0001497 269.6166  83.4991 15.50644962  4717"
      },
      "geometry": {
        "type": "Point",
        "coordinates": [
          -107.52005331109459,
          24.524848951441744
        ]
      }
    },
    {
      "type": "Feature",
      "properties": {
        "norad_id": 66478,
        "name": "STARLINK-35283",
        "group": "last-30-days",
        "lat": 23.377592019404148,
        "lon": -105.8475645140233,
        "alt_km": 412.2974053524067,
        "timestamp": "2025-12-07T11:27:48.739938+00:00",
        "meta_object_name": "STARLINK-35283",
        "meta_object_id": "2025-262Y",
        "meta_epoch": "2025-12-07T00:00:02.000160",
        "meta_mean_motion": 15.50654386,
        "meta_eccentricity": 0.00017107,
        "meta_inclination": 43.0008,
        "meta_ra_of_asc_node": 104.5843,
        "meta_arg_of_pericenter": 268.5855,
        "meta_mean_anomaly": 86.4458,
        "meta_ephemeris_type": 0,
        "meta_classification_type": "U",
        "meta_norad_cat_id": 66478,
        "meta_element_set_no": 999,
        "meta_rev_at_epoch": 471,
        "meta_bstar": -0.0028904091,
        "meta_mean_motion_dot": -0.00166799,
        "meta_mean_motion_ddot": 0,
        "tle_line1": "1 66478U 25262Y   25341.00002315 -.00166799  00000+0 -28904-2 0  9998",
        "tle_line2": "2 66478  43.0008 104.5843 0001710 268.5855  86.4458 15.50654386  4711"
      },
      "geometry": {
        "type": "Point",
        "coordinates": [
          -105.8475645140233,
          23.377592019404148
        ]
      }
    },
    {
      "type": "Feature",
      "properties": {
        "norad_id": 66479,
        "name": "STARLINK-35581",
        "group": "last-30-days",
        "lat": 25.65604599593671,
        "lon": -109.22773814794186,
        "alt_km": 411.827734860497,
        "timestamp": "2025-12-07T11:27:48.739948+00:00",
        "meta_object_name": "STARLINK-35581",
        "meta_object_id": "2025-262Z",
        "meta_epoch": "2025-12-07T00:00:02.000160",
        "meta_mean_motion": 15.50641592,
        "meta_eccentricity": 0.00014723,
        "meta_inclination": 43.0008,
        "meta_ra_of_asc_node": 104.5933,
        "meta_arg_of_pericenter": 266.1407,
        "meta_mean_anomaly": 85.0627,
        "meta_ephemeris_type": 0,
        "meta_classification_type": "U",
        "meta_norad_cat_id": 66479,
        "meta_element_set_no": 999,
        "meta_rev_at_epoch": 471,
        "meta_bstar": -0.0025305179,
        "meta_mean_motion_dot": -0.0014638,
        "meta_mean_motion_ddot": 0,
        "tle_line1": "1 66479U 25262Z   25341.00002315 -.00146380  00000+0 -25305-2 0  9995",
        "tle_line2": "2 66479  43.0008 104.5933 0001472 266.1407  85.0627 15.50641592  4712"
      },
      "geometry": {
        "type": "Point",
        "coordinates": [
          -109.22773814794186,
          25.65604599593671
        ]
      }
    },
    {
      "type": "Feature",
      "properties": {
        "norad_id": 66480,
        "name": "STARLINK-35670",
        "group": "last-30-days",
        "lat": 22.208558517769433,
        "lon": -104.19843535546498,
        "alt_km": 412.38250226084983,
        "timestamp": "2025-12-07T11:27:48.739958+00:00",
        "meta_object_name": "STARLINK-35670",
        "meta_object_id": "2025-262AA",
        "meta_epoch": "2025-12-07T00:00:02.000160",
        "meta_mean_motion": 15.50661286,
        "meta_eccentricity": 0.00015373,
        "meta_inclination": 43.0008,
        "meta_ra_of_asc_node": 104.5795,
        "meta_arg_of_pericenter": 268.5291,
        "meta_mean_anomaly": 88.4141,
        "meta_ephemeris_type": 0,
        "meta_classification_type": "U",
        "meta_norad_cat_id": 66480,
        "meta_element_set_no": 999,
        "meta_rev_at_epoch": 471,
        "meta_bstar": -0.0030018119,
        "meta_mean_motion_dot": -0.00173116,
        "meta_mean_motion_ddot": 0,
        "tle_line1": "1 66480U 25262AA  25341.00002315 -.00173116  00000+0 -30018-2 0  9991",
        "tle_line2": "2 66480  43.0008 104.5795 0001537 268.5291  88.4141 15.50661286  4719"
      },
      "geometry": {
        "type": "Point",
        "coordinates": [
          -104.19843535546498,
          22.208558517769433
        ]
      }
    },
    {
      "type": "Feature",
      "properties": {
        "norad_id": 66481,
        "name": "STARLINK-35698",
        "group": "last-30-days",
        "lat": 21.024951879137856,
        "lon": -102.5802004223623,
        "alt_km": 412.58718928203507,
        "timestamp": "2025-12-07T11:27:48.739971+00:00",
        "meta_object_name": "STARLINK-35698",
        "meta_object_id": "2025-262AB",
        "meta_epoch": "2025-12-07T00:00:02.000160",
        "meta_mean_motion": 15.50657939,
        "meta_eccentricity": 0.00016482,
        "meta_inclination": 43.0008,
        "meta_ra_of_asc_node": 104.5738,
        "meta_arg_of_pericenter": 267.8496,
        "meta_mean_anomaly": 91.0189,
        "meta_ephemeris_type": 0,
        "meta_classification_type": "U",
        "meta_norad_cat_id": 66481,
        "meta_element_set_no": 999,
        "meta_rev_at_epoch": 471,
        "meta_bstar": -0.0030293517,
        "meta_mean_motion_dot": -0.00174648,
        "meta_mean_motion_ddot": 0,
        "tle_line1": "1 66481U 25262AB  25341.00002315 -.00174648  00000+0 -30294-2 0  9999",
        "tle_line2": "2 66481  43.0008 104.5738 0001648 267.8496  91.0189 15.50657939  4711"
      },
      "geometry": {
        "type": "Point",
        "coordinates": [
          -102.5802004223623,
          21.024951879137856
        ]
      }
    },
    {
      "type": "Feature",
      "properties": {
        "norad_id": 66482,
        "name": "STARLINK-35648",
        "group": "last-30-days",
        "lat": 19.785734268525275,
        "lon": -100.93441084856313,
        "alt_km": 412.88603289729144,
        "timestamp": "2025-12-07T11:27:48.739984+00:00",
        "meta_object_name": "STARLINK-35648",
        "meta_object_id": "2025-262AC",
        "meta_epoch": "2025-12-07T00:00:02.000160",
        "meta_mean_motion": 15.50703598,
        "meta_eccentricity": 0.00015103,
        "meta_inclination": 43.0007,
        "meta_ra_of_asc_node": 104.5683,
        "meta_arg_of_pericenter": 266.6,
        "meta_mean_anomaly": 94.2685,
        "meta_ephemeris_type": 0,
        "meta_classification_type": "U",
        "meta_norad_cat_id": 66482,
        "meta_element_set_no": 999,
        "meta_rev_at_epoch": 456,
        "meta_bstar": -0.0050683142,
        "meta_mean_motion_dot": -0.00288276,
        "meta_mean_motion_ddot": 0,
        "tle_line1": "1 66482U 25262AC  25341.00002315 -.00288276  00000+0 -50683-2 0  9997",
        "tle_line2": "2 66482  43.0007 104.5683 0001510 266.6000  94.2685 15.50703598  4568"
      },
      "geometry": {
        "type": "Point",
        "coordinates": [
          -100.93441084856313,
          19.785734268525275
        ]
      }
    },
    {
      "type": "Feature",
      "properties": {
        "norad_id": 66483,
        "name": "STARLINK-35654",
        "group": "last-30-days",
        "lat": 18.611481972431775,
        "lon": -99.41637577057526,
        "alt_km": 412.80674408730283,
        "timestamp": "2025-12-07T11:27:48.739994+00:00",
        "meta_object_name": "STARLINK-35654",
        "meta_object_id": "2025-262AD",
        "meta_epoch": "2025-12-07T00:00:02.000160",
        "meta_mean_motion": 15.50638045,
        "meta_eccentricity": 0.00014725,
        "meta_inclination": 43.0008,
        "meta_ra_of_asc_node": 104.5629,
        "meta_arg_of_pericenter": 268.2793,
        "meta_mean_anomaly": 94.4282,
        "meta_ephemeris_type": 0,
        "meta_classification_type": "U",
        "meta_norad_cat_id": 66483,
        "meta_element_set_no": 999,
        "meta_rev_at_epoch": 471,
        "meta_bstar": -0.002394649,
        "meta_mean_motion_dot": -0.00138657,
        "meta_mean_motion_ddot": 0,
        "tle_line1": "1 66483U 25262AD  25341.00002315 -.00138657  00000+0 -23946-2 0  9997",
        "tle_line2": "2 66483  43.0008 104.5629 0001472 268.2793  94.4282 15.50638045  4710"
      },
      "geometry": {
        "type": "Point",
        "coordinates": [
          -99.41637577057526,
          18.611481972431775
        ]
      }
    }
  ]
}